OBJECT_NAME,OBJECT_ID,EPOCH,MEAN_MOTION,ECCENTRICITY,INCLINATION,RA_OF_ASC_NODE,ARG_OF_PERICENTER,MEAN_ANOMALY,EPHEMERIS_TYPE,CLASSIFICATION_TYPE,NORAD_CAT_ID,ELEMENT_SET_NO,REV_AT_EPOCH,BSTAR,MEAN_MOTION_DOT,MEAN_MOTION_DDOT
ION SCV-004,2022-002K,2026-05-12T14:19:21.781632,15.30085037,.00090256,97.2862,190.9291,116.2884,243.9285,0,U,50993,999,23985,.12015077E-3,.3427E-4,0
ETV-A1,2022-002CE,2026-05-12T22:22:37.021152,15.39926139,.00068691,97.2900,199.3563,110.2965,249.9020,0,U,51060,999,24041,.18782804E-3,.7397E-4,0
BRO-5,2022-002CF,2026-05-12T23:35:55.175136,15.45475831,.0006579,97.3016,206.3926,99.9427,260.2565,0,U,51061,999,24081,.24211164E-3,.11523E-3,0
LUDI TANCE 1-01A (L-SAR 01A),2022-007A,2026-05-12T22:54:06.082848,14.88413566,.00016067,97.8091,140.8760,90.3804,269.7597,0,U,51284,999,23323,.46731352E-4,.379E-5,0
LUDI TANCE 1-01B (L-SAR 01B),2022-018A,2026-05-12T23:42:29.057184,14.88414325,.00015901,97.8098,140.9048,92.8314,267.3085,0,U,51822,999,22847,.44593887E-4,.359E-5,0
JILIN-1 GAOFEN 03D15,2022-019R,2026-05-12T22:46:42.899232,15.91569791,.00060002,97.3663,228.4606,233.3748,126.6974,0,U,51839,999,23450,.73339749E-3,.235837E-2,.22686704E-4
JILIN-1 GAOFEN 03D12,2022-019T,2026-05-12T23:42:12.762144,15.92671856,.0005859,97.3611,228.4445,221.4332,138.6499,0,U,51841,999,23451,.74500412E-3,.253595E-2,.26279076E-4
2022-023F,2022-023F,2026-05-12T23:10:52.674816,15.17850445,.01278894,63.4487,33.2174,343.9559,15.7518,0,U,51951,999,23236,.53927049E-3,.13375E-3,0
MERIDIAN 10,2022-030A,2026-05-12T01:57:07.789824,2.00616481,.6774059,62.6767,144.6718,272.8814,17.7287,0,U,52145,999,3030,0,.272E-5,0
OMNI-L1,2022-033A,2026-05-12T11:28:46.121376,14.82612392,.0006214,97.8394,212.3524,53.0093,307.1688,0,U,52157,999,22216,.15307E-3,.118E-4,0
ENMAP,2022-033C,2026-05-12T22:58:10.326144,14.74956427,.0001487,97.9785,215.7064,85.4816,274.6563,0,U,52159,999,22146,-.322831E-6,-.52E-6,0
ARCSAT-1,2022-033E,2026-05-12T11:55:30.575424,15.52718744,.0003896,97.2738,224.2671,345.8696,14.2447,0,U,52161,999,23016,.13879E-3,.847E-4,0
GLOBAL-18,2022-034B,2026-05-12T05:38:15.855936,15.44759319,.000555,52.9817,68.2530,125.6983,234.4538,0,U,52196,999,23140,.29883E-3,.13803E-3,0
GAOFEN-3 03,2022-035A,2026-05-12T23:39:23.545152,14.42218642,.00010219,98.4079,142.0759,74.3010,285.8293,0,U,52200,999,21577,-.22509689E-4,-.118E-5,0
DAQI-1,2022-039A,2026-05-12T20:42:09.308736,14.57654927,.00042157,98.1465,72.4482,24.4205,335.7193,0,U,52257,999,21679,.2416488E-5,-.34E-6,0
BRO-6,2022-047AE,2026-05-12T22:32:30.806016,15.48408234,.00051614,97.3395,223.3808,183.1924,176.9295,0,U,52422,999,22569,.41204164E-3,.21788E-3,0
JILIN-1 GAOFEN 3D27,2022-048B,2026-05-12T22:35:26.489184,15.68266304,.00055024,97.5672,243.9112,169.7966,190.3407,0,U,52444,999,22394,.54044304E-3,.60657E-3,0
JILIN-1 GAOFEN 3D28,2022-048C,2026-05-12T22:22:41.077632,15.70337699,.00042568,97.5614,243.9411,186.5253,173.5954,0,U,52445,999,22398,.55383509E-3,.6772E-3,0
VIGORIDE-3,2022-057AE,2026-05-12T21:32:58.618752,15.26897957,.00072131,97.6550,271.9590,243.5534,116.4964,0,U,52760,999,21977,.13730839E-3,.3551E-4,0
ION SCV-006,2022-057AF,2026-05-12T22:16:07.561920,15.44446588,.00165415,97.6053,279.8935,238.9593,121.0032,0,U,52761,999,22067,.14718503E-3,.6747E-4,0
SHERPA-AC1,2022-057AH,2026-05-12T21:18:28.407456,15.35751806,.00070616,97.6637,280.6677,208.9656,151.1196,0,U,52763,999,22028,.15293944E-3,.5235E-4,0
OMNI-L2,2022-057AR,2026-05-12T22:18:28.971072,14.81272365,.00083459,97.4731,197.6561,83.9172,276.2993,0,U,52771,999,21517,.10857485E-3,.799E-5,0
STEP CUBE LAB-II,2022-065D,2026-05-12T22:04:39.493920,14.63244786,.00095627,98.2175,276.9408,130.0272,230.1771,0,U,52897,999,20634,.10381964E-3,.487E-5,0
RANDEV,2022-065E,2026-05-12T22:19:35.508576,14.63629934,.00088651,98.2163,277.2871,129.9374,230.2608,0,U,52898,999,20609,.10931171E-3,.52E-5,0
SNUGLITE-II,2022-065F,2026-05-12T15:14:22.098336,14.64278546,.0008531,98.2154,277.5396,130.0913,230.1038,0,U,52899,999,20579,.12346E-3,.603E-5,0
MIMAN,2022-065G,2026-05-12T22:25:20.302464,14.61802962,.00086527,98.2212,275.6045,130.6939,229.5015,0,U,52900,999,20529,.78971182E-4,.347E-5,0
STARLINK-4362,2022-077A,2026-05-12T18:38:40.933824,15.05666571,.00012824,97.5010,313.0580,87.5445,272.5929,0,U,53043,999,21055,-.24856677E-3,-.3646E-4,0
