ION SCV-004             
1 50993U 22002K   26132.59677988  .00003427  00000+0  12015-3 0  9992
2 50993  97.2862 190.9291 0009025 116.2884 243.9285 15.30085037239851
ETV-A1                  
1 51060U 22002CE  26132.93237293  .00007397  00000+0  18783-3 0  9995
2 51060  97.2900 199.3563 0006869 110.2965 249.9020 15.39926139240415
BRO-5                   
1 51061U 22002CF  26132.98327749  .00011523  00000+0  24211-3 0  9996
2 51061  97.3016 206.3926 0006579  99.9427 260.2565 15.45475831240810
LUDI TANCE 1-01A (L-SA*)
1 51284U 22007A   26132.95423707  .00000379  00000+0  46731-4 0  9995
2 51284  97.8091 140.8760 0001606  90.3804 269.7597 14.88413566233233
LUDI TANCE 1-01B (L-SA*)
1 51822U 22018A   26132.98783631  .00000359  00000+0  44594-4 0  9996
2 51822  97.8098 140.9048 0001590  92.8314 267.3085 14.88414325228473
JILIN-1 GAOFEN 03D15    
1 51839U 22019R   26132.94910763  .00235837  22687-4  73340-3 0  9990
2 51839  97.3663 228.4606 0006000 233.3748 126.6974 15.91569791234508
JILIN-1 GAOFEN 03D12    
1 51841U 22019T   26132.98764771  .00253595  26279-4  74500-3 0  9994
2 51841  97.3611 228.4445 0005859 221.4332 138.6499 15.92671856234516
2022-023F               
1 51951U 22023F   26132.96588744  .00013375  00000+0  53927-3 0  9992
2 51951  63.4487  33.2174 0127889 343.9559  15.7518 15.17850445232361
MERIDIAN 10             
1 52145U 22030A   26132.08134016  .00000272  00000+0  00000+0 0  9990
2 52145  62.6767 144.6718 6774059 272.8814  17.7287  2.00616481 30300
OMNI-L1                 
1 52157U 22033A   26132.47831159  .00001180  00000+0  15307-3 0  9990
2 52157  97.8394 212.3524 0006214  53.0093 307.1688 14.82612392222168
ENMAP                   
1 52159U 22033C   26132.95706396 -.00000052  00000+0 -32283-6 0  9993
2 52159  97.9785 215.7064 0001487  85.4816 274.6563 14.74956427221463
ARCSAT-1                
1 52161U 22033E   26132.49688166  .00008470  00000+0  13879-3 0  9996
2 52161  97.2738 224.2671 0003896 345.8696  14.2447 15.52718744230162
GLOBAL-18               
1 52196U 22034B   26132.23490574  .00013803  00000+0  29883-3 0  9999
2 52196  52.9817  68.2530 0005550 125.6983 234.4538 15.44759319231407
GAOFEN-3 03             
1 52200U 22035A   26132.98568918 -.00000118  00000+0 -22510-4 0  9994
2 52200  98.4079 142.0759 0001021  74.3010 285.8293 14.42218642215778
DAQI-1                  
1 52257U 22039A   26132.86260774 -.00000034  00000+0  24165-5 0  9991
2 52257  98.1465  72.4482 0004215  24.4205 335.7193 14.57654927216798
BRO-6                   
1 52422U 22047AE  26132.93924544  .00021788  00000+0  41204-3 0  9993
2 52422  97.3395 223.3808 0005161 183.1924 176.9295 15.48408234225692
JILIN-1 GAOFEN 3D27     
1 52444U 22048B   26132.94127881  .00060657  00000+0  54044-3 0  9992
2 52444  97.5672 243.9112 0005502 169.7966 190.3407 15.68266304223940
JILIN-1 GAOFEN 3D28     
1 52445U 22048C   26132.93241988  .00067720  00000+0  55384-3 0  9993
2 52445  97.5614 243.9411 0004256 186.5253 173.5954 15.70337699223983
VIGORIDE-3              
1 52760U 22057AE  26132.89790068  .00003551  00000+0  13731-3 0  9998
2 52760  97.6550 271.9590 0007213 243.5534 116.4964 15.26897957219772
ION SCV-006             
1 52761U 22057AF  26132.92786530  .00006747  00000+0  14719-3 0  9999
2 52761  97.6053 279.8935 0016541 238.9593 121.0032 15.44446588220677
SHERPA-AC1              
1 52763U 22057AH  26132.88782879  .00005235  00000+0  15294-3 0  9998
2 52763  97.6637 280.6677 0007061 208.9656 151.1196 15.35751806220288
OMNI-L2                 
1 52771U 22057AR  26132.92950198  .00000799  00000+0  10857-3 0  9993
2 52771  97.4731 197.6561 0008345  83.9172 276.2993 14.81272365215173
STEP CUBE LAB-II        
1 52897U 22065D   26132.91990155  .00000487  00000+0  10382-3 0  9994
2 52897  98.2175 276.9408 0009562 130.0272 230.1771 14.63244786206349
RANDEV                  
1 52898U 22065E   26132.93027209  .00000520  00000+0  10931-3 0  9996
2 52898  98.2163 277.2871 0008865 129.9374 230.2608 14.63629934206094
SNUGLITE-II             
1 52899U 22065F   26132.63497799  .00000603  00000+0  12346-3 0  9993
2 52899  98.2154 277.5396 0008531 130.0913 230.1038 14.64278546205794
MIMAN                   
1 52900U 22065G   26132.93426276  .00000347  00000+0  78971-4 0  9993
2 52900  98.2212 275.6045 0008652 130.6939 229.5015 14.61802962205294
STARLINK-4362           
1 53043U 22077A   26132.77686266 -.00003646  00000+0 -24857-3 0  9994
2 53043  97.5010 313.0580 0001282  87.5445 272.5929 15.05666571210556
